{"type": "FeatureCollection", "features": [ {"type": "Feature", "properties": {"norad_id": 65077, "name": "CREW DRAGON 11", "group": "stations", "lat": -51.58624579629574, "lon": 101.90076745877985, "alt_km": 422.922625412868, "timestamp": "2025-12-02T06:27:51.819082+00:00", "meta": {"OBJECT_NAME": "CREW DRAGON 11", "OBJECT_ID": "2025-166A", "EPOCH": "2025-12-01T13:49:44.445504", "MEAN_MOTION": 15.49226524, "ECCENTRICITY": 0.00036473, "INCLINATION": 51.6309, "RA_OF_ASC_NODE": 197.7449, "ARG_OF_PERICENTER": 190.9481, "MEAN_ANOMALY": 169.1428, "EPHEMERIS_TYPE": 0, "CLASSIFICATION_TYPE": "U", "NORAD_CAT_ID": 65077, "ELEMENT_SET_NO": 999, "REV_AT_EPOCH": 214, "BSTAR": 0.00016365535, "MEAN_MOTION_DOT": 8.648e-05, "MEAN_MOTION_DDOT": 0}, "tle": {"line1": "1 65077U 25166A   25335.57620886  .00008648  00000+0  16366-3 0  9995", "line2": "2 65077  51.6309 197.7449 0003647 190.9481 169.1428 15.49226524  2142"}}, "geometry": {"type": "Point", "coordinates": [101.90076745877985, -51.58624579629574]}}, {"type": "Feature", "properties": {"norad_id": 65304, "name": "DRAGON CRS-33", "group": "stations", "lat": -51.58624581756741, "lon": 101.90076849549942, "alt_km": 422.9226254403811, "timestamp": "2025-12-02T06:27:51.819092+00:00", "meta": {"OBJECT_NAME": "DRAGON CRS-33", "OBJECT_ID": "2025-186A", "EPOCH": "2025-12-01T13:49:44.445504", "MEAN_MOTION": 15.49226524, "ECCENTRICITY": 0.00036473, "INCLINATION": 51.6309, "RA_OF_ASC_NODE": 197.7449, "ARG_OF_PERICENTER": 190.9481, "MEAN_ANOMALY": 169.1428, "EPHEMERIS_TYPE": 0, "CLASSIFICATION_TYPE": "U", "NORAD_CAT_ID": 65304, "ELEMENT_SET_NO": 999, "REV_AT_EPOCH": 11, "BSTAR": 0.00016365535, "MEAN_MOTION_DOT": 8.648e-05, "MEAN_MOTION_DDOT": 0}, "tle": {"line1": "1 65304U 25186A   25335.57620886  .00008648  00000+0  16366-3 0  9990", "line2": "2 65304  51.6309 197.7449 0003647 190.9481 169.1428 15.49226524   110"}}, "geometry": {"type": "Point", "coordinates": [101.90076849549942, -51.58624581756741]}}, {"type": "Feature", "properties": {"norad_id": 65586, "name": "PROGRESS-MS 32", "group": "stations", "lat": -51.58624584522054, "lon": 101.90076984323417, "alt_km": 422.9226254761461, "timestamp": "2025-12-02T06:27:51.819105+00:00", "meta": {"OBJECT_NAME": "PROGRESS-MS 32", "OBJECT_ID": "2025-204A", "EPOCH": "2025-12-01T13:49:44.445504", "MEAN_MOTION": 15.49226524, "ECCENTRICITY": 0.00036473, "INCLINATION": 51.6309, "RA_OF_ASC_NODE": 197.7449, "ARG_OF_PERICENTER": 190.9481, "MEAN_ANOMALY": 169.1428, "EPHEMERIS_TYPE": 0, "CLASSIFICATION_TYPE": "U", "NORAD_CAT_ID": 65586, "ELEMENT_SET_NO": 999, "REV_AT_EPOCH": 27, "BSTAR": 0.00016365535, "MEAN_MOTION_DOT": 8.648e-05, "MEAN_MOTION_DDOT": 0}, "tle": {"line1": "1 65586U 25204A   25335.57620886  .00008648  00000+0  16366-3 0  9993", "line2": "2 65586  51.6309 197.7449 0003647 190.9481 169.1428 15.49226524   279"}}, "geometry": {"type": "Point", "coordinates": [101.90076984323417, -51.58624584522054]}}, {"type": "Feature", "properties": {"norad_id": 65616, "name": "CYGNUS NG-23", "group": "stations", "lat": -51.58624586861934, "lon": 101.90077098362545, "alt_km": 422.92262550641044, "timestamp": "2025-12-02T06:27:51.819116+00:00", "meta": {"OBJECT_NAME": "CYGNUS NG-23", "OBJECT_ID": "2025-208A", "EPOCH": "2025-12-01T13:49:44.445504", "MEAN_MOTION": 15.49226524, "ECCENTRICITY": 0.00036473, "INCLINATION": 51.6309, "RA_OF_ASC_NODE": 197.7449, "ARG_OF_PERICENTER": 190.9481, "MEAN_ANOMALY": 169.1428, "EPHEMERIS_TYPE": 0, "CLASSIFICATION_TYPE": "U", "NORAD_CAT_ID": 65616, "ELEMENT_SET_NO": 999, "REV_AT_EPOCH": 22, "BSTAR": 0.00016365535, "MEAN_MOTION_DOT": 8.648e-05, "MEAN_MOTION_DDOT": 0}, "tle": {"line1": "1 65616U 25208A   25335.57620886  .00008648  00000+0  16366-3 0  9991", "line2": "2 65616  51.6309 197.7449 0003647 190.9481 169.1428 15.49226524   228"}}, "geometry": {"type": "Point", "coordinates": [101.90077098362545, -51.58624586861934]}}, {"type": "Feature", "properties": {"norad_id": 65729, "name": "DRAGONFLY", "group": "stations", "lat": -12.089830501437888, "lon": 18.98537228397761, "alt_km": 363.0057056860687, "timestamp": "2025-12-02T06:27:51.819126+00:00", "meta": {"OBJECT_NAME": "DRAGONFLY", "OBJECT_ID": "1998-067XH", "EPOCH": "2025-12-01T20:27:20.656224", "MEAN_MOTION": 15.6777805, "ECCENTRICITY": 0.0006425, "INCLINATION": 51.6261, "RA_OF_ASC_NODE": 191.3365, "ARG_OF_PERICENTER": 210.8786, "MEAN_ANOMALY": 149.1833, "EPHEMERIS_TYPE": 0, "CLASSIFICATION_TYPE": "U", "NORAD_CAT_ID": 65729, "ELEMENT_SET_NO": 999, "REV_AT_EPOCH": 1145, "BSTAR": 0.0010934, "MEAN_MOTION_DOT": 0.00123925, "MEAN_MOTION_DDOT": 0}, "tle": {"line1": "1 65729U 98067XH  25335.85232241  .00123925  00000+0  10934-2 0  9994", "line2": "2 65729  51.6261 191.3365 0006425 210.8786 149.1833 15.67778050 11455"}}, "geometry": {"type": "Point", "coordinates": [18.98537228397761, -12.089830501437888]}}, {"type": "Feature", "properties": {"norad_id": 65730, "name": "1998-067XJ", "group": "stations", "lat": 3.2154921875673237, "lon": -173.93300608551888, "alt_km": 230.20516276905073, "timestamp": "2025-12-02T06:27:51.819136+00:00", "meta": {"OBJECT_NAME": "1998-067XJ", "OBJECT_ID": "1998-067XJ", "EPOCH": "2025-12-01T20:03:18.916704", "MEAN_MOTION": 16.13832998, "ECCENTRICITY": 0.0010756, "INCLINATION": 51.6109, "RA_OF_ASC_NODE": 185.8826, "ARG_OF_PERICENTER": 242.801, "MEAN_ANOMALY": 117.191, "EPHEMERIS_TYPE": 0, "CLASSIFICATION_TYPE": "U", "NORAD_CAT_ID": 65730, "ELEMENT_SET_NO": 999, "REV_AT_EPOCH": 1152, "BSTAR": 0.0027371, "MEAN_MOTION_DOT": 0.02710772, "MEAN_MOTION_DDOT": 0.014802}, "tle": {"line1": "1 65730U 98067XJ  25335.83563561  .02710772  14802-1  27371-2 0  9990", "line2": "2 65730  51.6109 185.8826 0010756 242.8010 117.1910 16.13832998 11528"}}, "geometry": {"type": "Point", "coordinates": [-173.93300608551888, 3.2154921875673237]}}, {"type": "Feature", "properties": {"norad_id": 65731, "name": "1998-067XK", "group": "stations", "lat": 43.482480148059864, "lon": -121.03182878264596, "alt_km": 374.54261228916494, "timestamp": "2025-12-02T06:27:51.819146+00:00", "meta": {"OBJECT_NAME": "1998-067XK", "OBJECT_ID": "1998-067XK", "EPOCH": "2025-12-01T19:27:46.296864", "MEAN_MOTION": 15.6318737, "ECCENTRICITY": 0.0005928, "INCLINATION": 51.6288, "RA_OF_ASC_NODE": 192.5703, "ARG_OF_PERICENTER": 183.4373, "MEAN_ANOMALY": 176.6582, "EPHEMERIS_TYPE": 0, "CLASSIFICATION_TYPE": "U", "NORAD_CAT_ID": 65731, "ELEMENT_SET_NO": 999, "REV_AT_EPOCH": 1143, "BSTAR": 0.00080447, "MEAN_MOTION_DOT": 0.00075235, "MEAN_MOTION_DDOT": 0}, "tle": {"line1": "1 65731U 98067XK  25335.81095251  .00075235  00000+0  80447-3 0  9998", "line2": "2 65731  51.6288 192.5703 0005928 183.4373 176.6582 15.63187370 11439"}}, "geometry": {"type": "Point", "coordinates": [-121.03182878264596, 43.482480148059864]}}, {"type": "Feature", "properties": {"norad_id": 65732, "name": "RSP-03", "group": "stations", "lat": -43.19785136708619, "lon": 141.67390848659784, "alt_km": 377.9191372448313, "timestamp": "2025-12-02T06:27:51.819157+00:00", "meta": {"OBJECT_NAME": "RSP-03", "OBJECT_ID": "1998-067XL", "EPOCH": "2025-12-01T19:59:56.239584", "MEAN_MOTION": 15.65356239, "ECCENTRICITY": 0.0006786, "INCLINATION": 51.6276, "RA_OF_ASC_NODE": 191.9628, "ARG_OF_PERICENTER": 186.6272, "MEAN_ANOMALY": 173.4635, "EPHEMERIS_TYPE": 0, "CLASSIFICATION_TYPE": "U", "NORAD_CAT_ID": 65732, "ELEMENT_SET_NO": 999, "REV_AT_EPOCH": 1145, "BSTAR": 0.00097939, "MEAN_MOTION_DOT": 0.00100299, "MEAN_MOTION_DDOT": 0}, "tle": {"line1": "1 65732U 98067XL  25335.83328981  .00100299  00000+0  97939-3 0  9993", "line2": "2 65732  51.6276 191.9628 0006786 186.6272 173.4635 15.65356239 11452"}}, "geometry": {"type": "Point", "coordinates": [141.67390848659784, -43.19785136708619]}}, {"type": "Feature", "properties": {"norad_id": 65733, "name": "GHS-01", "group": "stations", "lat": 14.712572940540644, "lon": -159.15553418654034, "alt_km": 362.660468173106, "timestamp": "2025-12-02T06:27:51.819167+00:00", "meta": {"OBJECT_NAME": "GHS-01", "OBJECT_ID": "1998-067XM", "EPOCH": "2025-12-01T19:41:20.291136", "MEAN_MOTION": 15.69686593, "ECCENTRICITY": 0.0007042, "INCLINATION": 51.6281, "RA_OF_ASC_NODE": 191.1284, "ARG_OF_PERICENTER": 209.8558, "MEAN_ANOMALY": 150.2038, "EPHEMERIS_TYPE": 0, "CLASSIFICATION_TYPE": "U", "NORAD_CAT_ID": 65733, "ELEMENT_SET_NO": 999, "REV_AT_EPOCH": 1146, "BSTAR": 0.0012238, "MEAN_MOTION_DOT": 0.00150647, "MEAN_MOTION_DDOT": 0}, "tle": {"line1": "1 65733U 98067XM  25335.82037374  .00150647  00000+0  12238-2 0  9996", "line2": "2 65733  51.6281 191.1284 0007042 209.8558 150.2038 15.69686593 11464"}}, "geometry": {"type": "Point", "coordinates": [-159.15553418654034, 14.712572940540644]}}, {"type": "Feature", "properties": {"norad_id": 65941, "name": "YOTSUBA-KULOVER", "group": "stations", "lat": 34.50766462968336, "lon": -134.4641360837005, "alt_km": 390.6105552285135, "timestamp": "2025-12-02T06:27:51.819176+00:00", "meta": {"OBJECT_NAME": "YOTSUBA-KULOVER", "OBJECT_ID": "1998-067XN", "EPOCH": "2025-12-01T14:52:06.534912", "MEAN_MOTION": 15.57565098, "ECCENTRICITY": 0.00022157, "INCLINATION": 51.6287, "RA_OF_ASC_NODE": 195.7889, "ARG_OF_PERICENTER": 159.9481, "MEAN_ANOMALY": 200.1599, "EPHEMERIS_TYPE": 0, "CLASSIFICATION_TYPE": "U", "NORAD_CAT_ID": 65941, "ELEMENT_SET_NO": 999, "REV_AT_EPOCH": 812, "BSTAR": 0.00079143347, "MEAN_MOTION_DOT": 0.00059437, "MEAN_MOTION_DDOT": 0}, "tle": {"line1": "1 65941U 98067XN  25335.61952008  .00059437  00000+0  79143-3 0  9998", "line2": "2 65941  51.6287 195.7889 0002215 159.9481 200.1599 15.57565098  8128"}}, "geometry": {"type": "Point", "coordinates": [-134.4641360837005, 34.50766462968336]}}]}